      2.10          N: GNSS NAV DATA                        RINEX VERSION / TYPE
fic2rin                                 02/12/2019 00:18:43 PGM / RUN BY / DATE
                                                            END OF HEADER
19 19  2 11 14  0  0.0-3.536227159202e-04 4.092726157978e-12 0.000000000000e+00
    6.000000000000e+01-1.415625000000e+01 3.846588797292e-09-7.706671693581e-01
   -5.476176738739e-07 9.380532428622e-03 1.005083322525e-05 5.153625051498e+03
    1.368000000000e+05-6.332993507385e-08-2.053300682684e+00 1.266598701477e-07
    9.814953669702e-01 1.991562500000e+02 1.342943420035e+00-7.923187175406e-09
    1.346484657919e-10 1.000000000000e+00 2.040000000000e+03 0.000000000000e+00
    2.400000000000e+00 0.000000000000e+00-1.536682248116e-08 6.000000000000e+01
    1.296000000000e+05 4.000000000000e+00
29 19  2 11 14  0  0.0 2.729184925556e-04-8.526512829121e-12 0.000000000000e+00
    4.800000000000e+01-2.184375000000e+01 3.774085777250e-09-2.717487157951e+00
   -1.078471541405e-06 6.828663172200e-04 9.335577487946e-06 5.153567029953e+03
    1.368000000000e+05-4.470348358154e-08-2.088788534198e+00-6.146728992462e-08
    9.851831128082e-01 2.132812500000e+02 1.452281128767e+00-7.695677698723e-09
    2.678683006471e-11 1.000000000000e+00 2.040000000000e+03 0.000000000000e+00
    2.400000000000e+00 0.000000000000e+00-1.024454832077e-08 4.800000000000e+01
    1.296000000000e+05 4.000000000000e+00
20 19  2 11 14  0  0.0 5.220971070230e-04 3.410605131648e-13 0.000000000000e+00
    5.000000000000e+01-3.718750000000e+01 5.549516873939e-09 2.804241084926e-01
   -1.979991793633e-06 4.413023823872e-03 5.766749382019e-06 5.153669128418e+03
    1.368000000000e+05-1.676380634308e-08-1.749056736376e-01-2.607703208923e-08
    9.303276961571e-01 2.523125000000e+02 2.275811572915e+00-8.679290098699e-09
    9.643258823294e-12 1.000000000000e+00 2.040000000000e+03 0.000000000000e+00
    2.400000000000e+00 0.000000000000e+00-8.381903171539e-09 5.000000000000e+01
    1.296000000000e+05 4.000000000000e+00
28 19  2 11 14  0  0.0 7.643448188901e-04 9.094947017729e-13 0.000000000000e+00
    1.280000000000e+02-1.993750000000e+01 3.950878855677e-09-2.687521362829e+00
   -9.741634130478e-07 1.931796805002e-02 6.059184670448e-06 5.153699584961e+03
    1.368000000000e+05 1.657754182816e-07-3.109974551015e+00 9.499490261078e-08
    9.835628432604e-01 2.725312500000e+02-1.474309643874e+00-7.618888785871e-09
   -2.614394614315e-10 1.000000000000e+00 2.040000000000e+03 0.000000000000e+00
    3.400000000000e+00 0.000000000000e+00-1.117587089539e-08 1.280000000000e+02
    1.296000000000e+05 4.000000000000e+00
 4 19  2 11 14  0  0.0 1.107379794121e-04 9.663381206337e-12 0.000000000000e+00
    1.880000000000e+02 1.225000000000e+01 4.551261006861e-09-2.234912691713e-01
    7.264316082001e-07 3.107917727903e-04 1.074746251106e-05 5.153584819794e+03
    1.368000000000e+05 6.705522537231e-08 1.019989273756e+00-4.656612873077e-08
    9.598256822609e-01 1.706250000000e+02-1.516884509860e+00-8.019619763639e-09
   -8.893227581482e-11 1.000000000000e+00 2.040000000000e+03 0.000000000000e+00
    9.650000000000e+00 6.300000000000e+01-8.847564458847e-09 4.440000000000e+02
    1.296600000000e+05 4.000000000000e+00
14 19  2 11 13 59 44.0-9.159184992313e-05 6.821210263297e-13 0.000000000000e+00
    2.200000000000e+01 5.187500000000e+00 4.437327689652e-09 2.514490848808e+00
    2.179294824600e-07 1.012854650617e-02 1.044198870659e-05 5.153673730850e+03
    1.367840000000e+05 6.146728992462e-08 1.067531769200e+00-1.285225152969e-07
    9.605065638338e-01 1.752187500000e+02-1.949723951200e+00-7.768537876499e-09
   -6.928860043404e-11 1.000000000000e+00 2.040000000000e+03 0.000000000000e+00
    2.400000000000e+00 0.000000000000e+00-9.778887033463e-09 2.200000000000e+01
    1.299300000000e+05 4.000000000000e+00
14 19  2 11 15 59 44.0-9.158719331026e-05 6.821210263297e-13 0.000000000000e+00
    2.300000000000e+01 1.593750000000e+00 4.469829043464e-09-2.718481316116e+00
    1.210719347000e-07 1.012866513338e-02 1.060962677002e-05 5.153673448563e+03
    1.439840000000e+05 1.341104507446e-07 1.067475511223e+00-5.029141902924e-08
    9.605061512909e-01 1.719687500000e+02-1.949756005198e+00-7.785681447740e-09
   -8.214627886510e-12 1.000000000000e+00 2.040000000000e+03 0.000000000000e+00
    2.400000000000e+00 0.000000000000e+00-9.778887033463e-09 2.300000000000e+01
    1.368000000000e+05 4.000000000000e+00
 2 19  2 11 16  0  0.0-1.371731050313e-04-9.890754881781e-12 0.000000000000e+00
    2.100000000000e+01 6.218750000000e+00 4.622692553700e-09 1.941498746964e+00
    1.210719347000e-07 1.886149996426e-02 7.199123501778e-06 5.153649261475e+03
    1.440000000000e+05 1.545995473862e-07-1.165887152954e+00-3.967434167862e-07
    9.532774034645e-01 2.330625000000e+02-1.775438721601e+00-8.064621638148e-09
    4.185888644778e-10 1.000000000000e+00 2.040000000000e+03 0.000000000000e+00
    2.400000000000e+00 0.000000000000e+00-2.048909664154e-08 2.100000000000e+01
    1.368000000000e+05 4.000000000000e+00
 1 19  2 11 16  0  0.0-1.613879576325e-04-6.934897101019e-12 0.000000000000e+00
    4.800000000000e+01 8.906250000000e+00 4.297679015581e-09 1.630010042655e+00
    4.265457391739e-07 8.378222933970e-03 6.876885890961e-06 5.153660646439e+03
    1.440000000000e+05-1.788139343262e-07-1.099316255300e+00 8.195638656616e-08
    9.741949288434e-01 2.535625000000e+02 6.849595594293e-01-8.127481399366e-09
    2.885834492304e-10 1.000000000000e+00 2.040000000000e+03 0.000000000000e+00
    2.400000000000e+00 0.000000000000e+00 5.587935447693e-09 4.800000000000e+01
    1.368000000000e+05 4.000000000000e+00
12 19  2 11 16  0  0.0 2.688202075660e-04-3.183231456205e-12 0.000000000000e+00
    4.000000000000e+00-1.121875000000e+01 4.194103272665e-09 3.036327362079e-01
   -5.885958671570e-07 7.423561764881e-03 5.697831511497e-06 5.153698705673e+03
    1.440000000000e+05-1.192092895508e-07-3.132961581751e+00 1.303851604462e-07
    9.842577966422e-01 2.818750000000e+02 1.031441141309e+00-8.137481815924e-09
   -3.310852195998e-10 1.000000000000e+00 2.040000000000e+03 0.000000000000e+00
    2.400000000000e+00 0.000000000000e+00-1.257285475731e-08 4.000000000000e+00
    1.368000000000e+05 4.000000000000e+00
 6 19  2 11 16  0  0.0 2.779592759907e-04-8.185452315956e-12 0.000000000000e+00
    2.100000000000e+01 1.156250000000e+01 4.214461263514e-09 1.842991401132e+00
    6.482005119324e-07 1.446898793802e-03 6.983056664467e-06 5.153792442322e+03
    1.440000000000e+05 4.656612873077e-08-1.107606152699e+00 3.911554813385e-08
    9.738621559421e-01 2.506562500000e+02-1.165102639727e+00-7.999261772790e-09
    3.882304570711e-10 1.000000000000e+00 2.040000000000e+03 0.000000000000e+00
    2.400000000000e+00 0.000000000000e+00 4.656612873077e-09 2.100000000000e+01
    1.368000000000e+05 4.000000000000e+00
 3 19  2 11 16  0  0.0 1.824358478189e-04 1.818989403546e-12 0.000000000000e+00
    1.700000000000e+01-4.375000000000e+01 4.748769233871e-09 6.093941718276e-01
   -2.454966306686e-06 1.887057325803e-03 6.798654794693e-06 5.153582143784e+03
    1.440000000000e+05 4.470348358154e-08-5.679716976153e-02-7.450580596924e-09
    9.627166439153e-01 2.525625000000e+02 6.379007354232e-01-8.239986085638e-09
   -7.250302004181e-11 1.000000000000e+00 2.040000000000e+03 0.000000000000e+00
    2.400000000000e+00 0.000000000000e+00 2.328306436539e-09 1.700000000000e+01
    1.368000000000e+05 4.000000000000e+00
16 19  2 11 16  0  0.0-1.854170113802e-05-2.501110429876e-12 0.000000000000e+00
    1.400000000000e+01-1.696875000000e+01 4.028024926263e-09-1.597019452282e+00
   -9.275972843170e-07 1.057143660728e-02 5.479902029037e-06 5.153772134781e+03
    1.440000000000e+05 1.210719347000e-07-3.114059508369e+00-1.490116119385e-07
    9.846355528116e-01 2.853125000000e+02 5.377120446764e-01-7.879613931834e-09
   -1.789360248322e-10 1.000000000000e+00 2.040000000000e+03 0.000000000000e+00
    2.400000000000e+00 0.000000000000e+00-1.071020960808e-08 1.400000000000e+01
    1.368000000000e+05 4.000000000000e+00
10 19  2 11 16  0  0.0 1.187911257148e-04-7.503331289627e-12 0.000000000000e+00
    1.200000000000e+01-3.709375000000e+01 4.761269754568e-09-4.023223338372e-01
   -1.866370439529e-06 4.322684719227e-03 6.495043635368e-06 5.153658893585e+03
    1.440000000000e+05 6.519258022308e-08-6.008607292897e-02 5.960464477539e-08
    9.627593055324e-01 2.544062500000e+02-2.755237475180e+00-8.232842930954e-09
   -2.428672592533e-11 1.000000000000e+00 2.040000000000e+03 0.000000000000e+00
    2.400000000000e+00 0.000000000000e+00 1.862645149231e-09 1.200000000000e+01
    1.368000000000e+05 4.000000000000e+00
 8 19  2 11 16  0  0.0-1.323623582721e-04-1.364242052659e-12 0.000000000000e+00
    3.900000000000e+01-1.328125000000e+01 4.070169538899e-09-2.147977393617e+00
   -6.668269634247e-07 4.259554436430e-03 9.177252650261e-06 5.153698911667e+03
    1.440000000000e+05-5.587935447693e-08-2.165899699559e+00 2.793967723846e-08
    9.700982944764e-01 2.110312500000e+02-3.534358102030e-01-7.912829601114e-09
    3.857303529318e-11 1.000000000000e+00 2.040000000000e+03 0.000000000000e+00
    2.400000000000e+00 0.000000000000e+00 5.122274160385e-09 3.900000000000e+01
    1.368000000000e+05 4.000000000000e+00
 5 19  2 11 16  0  0.0 1.068692654371e-06 1.136868377216e-13 0.000000000000e+00
    7.400000000000e+01-4.184375000000e+01 5.020209111860e-09-1.717084710030e+00
   -2.281740307808e-06 5.546574946493e-03 6.446614861488e-06 5.153622873306e+03
    1.440000000000e+05 5.587935447693e-08-8.218376796953e-02-3.539025783539e-08
    9.495887228219e-01 2.433750000000e+02 7.151367418244e-01-8.305703108730e-09
    3.571577341961e-12 1.000000000000e+00 2.040000000000e+03 0.000000000000e+00
    2.400000000000e+00 0.000000000000e+00-1.117587089539e-08 7.400000000000e+01
    1.368000000000e+05 4.000000000000e+00
